CORAL                   
1 67684U 98067YA  26087.71188505  .00098869  00000+0  13026-2 0  9992
2 67684  51.6303 336.4340 0012717 244.5038 115.4639 15.57540134  7751
GXIBA-1                 
1 67685U 98067YB  26087.12648434  .00046994  00000+0  71759-3 0  9990
2 67685  51.6320 340.0239 0011859 249.3772 110.5947 15.53874924  7653
UITMSAT-2               
1 67686U 98067YC  26087.11230092  .00058539  00000+0  86220-3 0  9994
2 67686  51.6320 339.9313 0009050 220.6186 139.4131 15.54802779  7650
HMU-SAT2                
1 67687U 98067YD  26087.71019094  .00050719  00000+0  77992-3 0  9996
2 67687  51.6326 337.1748 0008606 226.2008 133.8271 15.53685811  7669
LEOPARD                 
1 67688U 98067YE  26087.69738044  .00058058  00000+0  86636-3 0  9996
2 67688  51.6331 337.0890 0008791 223.7517 136.2778 15.54451538  7662
CREW DRAGON 12          
1 67796U 26031A   26087.87455012  .00011057  00000+0  21128-3 0  9992
2 67796  51.6344 337.5169 0006219 244.1555 115.8792 15.48616916559265
PROGRESS-MS 33          
1 68319U 26058A   26087.87455012  .00011057  00000+0  21128-3 0  9993
2 68319  51.6344 337.5169 0006219 244.1555 115.8792 15.48616916   774
